AO-51
1 28375U 04025K   10181.48367536  .00000009  00000-0  15072-4 0 07131
2 28375 098.0625 174.2221 0085203 056.8770 304.0562 14.40689204315420
GENESAT1
1 29655U 06058C   10182.71638784  .00203407  22672-4  41479-3 0  1407
2 29655 040.0155 293.5207 0008725 048.6689 311.4995 15.98538407202315
CP3
1 31129U 07012N   10181.51316043  .00000216  00000-0  60052-4 0 06151
2 31129 097.9356 220.3710 0103820 190.9533 168.9594 14.52272147169795
CO-65
1 32785U 08021C   10182.41398721  .00000475  00000-0  66994-4 0  7210
2 32785 097.8953 247.1446 0013880 236.8435 123.1467 14.81673774117592
KKS-1
1 33493U 09002B   10182.57752785  .00000431  00000-0  62433-4 0  6213
2 33493 098.0875 302.1933 0021396 094.4055 265.9605 14.81022470 77613
SOHLA-1
1 33496U 09002E   10181.77915786  .00000062  00000-0  18744-4 0 01423
2 33496 098.0609 290.6791 0006958 151.2033 208.9566 14.69500541076875
NOAA-10
1 16969U 86073A   10181.61149397  .00000051  00000-0  38835-4 0 01164
2 16969 098.6543 210.4526 0012264 168.4756 191.6720 14.27420333237490
NOAA-11
1 19531U 88089A   10181.32251370 -.00000180  00000-0 -70507-4 0 01284
2 19531 098.7704 270.1243 0012241 108.2946 251.9582 14.14928071122997
NOAA-12
1 21263U 91032A   10181.82635799  .00000065  00000-0  46392-4 0 06164
2 21263 098.7642 194.9828 0013175 124.0041 236.2384 14.25641604994342
MET-3/5
1 21655U 91056A   10181.70265413  .00000051  00000-0  10000-3 0  8505
2 21655 082.5591 299.0856 0012543 319.7892 040.2287 13.17020882907454
MET-2/21
1 22782U 93055A   10182.53730931  .00000004  00000-0 -93224-5 0  8175
2 22782 082.5468 241.0568 0022552 006.9608 353.1865 13.83645476850064
OKEAN-4
1 23317U 94066A   10181.68277031  .00000243  00000-0  26917-4 0 02728
2 23317 082.5410 341.2596 0021528 193.2978 166.7695 14.82830692848457
NOAA-14
1 23455U 94089A   10181.80090241 -.00000006  00000-0  20429-4 0 01084
2 23455 098.8787 262.4503 0009010 192.2069 167.8874 14.13788742799426
NOAA-15
1 25338U 98030A   10181.56661767  .00000177  00000-0  94551-4 0 04297
2 25338 098.6188 168.2506 0011353 040.6947 319.5084 14.24837581630657
RESURS
1 25394U 98043A   10181.62602865  .00000034  00000-0  32588-4 0 05435
2 25394 098.3043 198.9741 0001382 139.9351 220.1926 14.24204808622269
FENGYUN1
1 25730U 99025A   10181.45020423 -.00000009  00000-0  19914-4 0 00789
2 25730 098.7856 146.0590 0020706 231.5343 128.4021 14.08187787573557
OKEAN-0
1 25860U 99039A   10182.47147553  .00000021  00000-0  10647-4 0   344
2 25860 097.8324 154.6837 0001786 061.6194 298.5188 14.73646567589001
