Satellite: AO-51
Catalog number: 28375
Epoch time:      10181.48367536
Element set:    0713
Inclination:      098.0625 deg
RA of node:       174.2221 deg
Eccentricity:    0.0085203
Arg of perigee:   056.8770 deg
Mean anomaly:     304.0562 deg
Mean motion:   14.40689204 rev/day
Decay rate:        9.0e-08 rev/day^2
Epoch rev:           31542
Checksum:              289

Satellite: GENESAT1
Catalog number: 29655
Epoch time:      10182.71638784
Element set:     140
Inclination:      040.0155 deg
RA of node:       293.5207 deg
Eccentricity:    0.0008725
Arg of perigee:   048.6689 deg
Mean anomaly:     311.4995 deg
Mean motion:   15.98538407 rev/day
Decay rate:    2.03407e-03 rev/day^2
Epoch rev:           20231
Checksum:              307

Satellite: CP3
Catalog number: 31129
Epoch time:      10181.51316043
Element set:    0615
Inclination:      097.9356 deg
RA of node:       220.3710 deg
Eccentricity:    0.0103820
Arg of perigee:   190.9533 deg
Mean anomaly:     168.9594 deg
Mean motion:   14.52272147 rev/day
Decay rate:       2.16e-06 rev/day^2
Epoch rev:           16979
Checksum:              290

Satellite: CO-65
Catalog number: 32785
Epoch time:      10182.41398721
Element set:     721
Inclination:      097.8953 deg
RA of node:       247.1446 deg
Eccentricity:    0.0013880
Arg of perigee:   236.8435 deg
Mean anomaly:     123.1467 deg
Mean motion:   14.81673774 rev/day
Decay rate:       4.75e-06 rev/day^2
Epoch rev:           11759
Checksum:              334

Satellite: KKS-1
Catalog number: 33493
Epoch time:      10182.57752785
Element set:     621
Inclination:      098.0875 deg
RA of node:       302.1933 deg
Eccentricity:    0.0021396
Arg of perigee:   094.4055 deg
Mean anomaly:     265.9605 deg
Mean motion:   14.81022470 rev/day
Decay rate:       4.31e-06 rev/day^2
Epoch rev:            7761
Checksum:              297

Satellite: SOHLA-1
Catalog number: 33496
Epoch time:      10181.77915786
Element set:    0142
Inclination:      098.0609 deg
RA of node:       290.6791 deg
Eccentricity:    0.0006958
Arg of perigee:   151.2033 deg
Mean anomaly:     208.9566 deg
Mean motion:   14.69500541 rev/day
Decay rate:        6.2e-07 rev/day^2
Epoch rev:           07687
Checksum:              321

/EX
SB KEPS @ AMSAT  $ORB10182.W
Orbital Elements  10182.WEATHER

HR AMSAT ORBITAL ELEMENTS FOR WEATHER SATELLITES
FROM WA5QGD FORT WORTH,TX July 1, 2010
Send Subscribe/unsubscribe to KEPS at http://www.amsat.org/mailman/listinfo/keps
BID: ORB10182.W
TO ALL RADIO AMATEURS BT

Satellite: NOAA-10
Catalog number: 16969
Epoch time:      10181.61149397
Element set:    0116
Inclination:      098.6543 deg
RA of node:       210.4526 deg
Eccentricity:    0.0012264
Arg of perigee:   168.4756 deg
Mean anomaly:     191.6720 deg
Mean motion:   14.27420333 rev/day
Decay rate:        5.1e-07 rev/day^2
Epoch rev:           23749
Checksum:              295

Satellite: NOAA-11
Catalog number: 19531
Epoch time:      10181.32251370
Element set:    0128
Inclination:      098.7704 deg
RA of node:       270.1243 deg
Eccentricity:    0.0012241
Arg of perigee:   108.2946 deg
Mean anomaly:     251.9582 deg
Mean motion:   14.14928071 rev/day
Decay rate:      -1.80e-06 rev/day^2
Epoch rev:           12299
Checksum:              272

Satellite: NOAA-12
Catalog number: 21263
Epoch time:      10181.82635799
Element set:    0616
Inclination:      098.7642 deg
RA of node:       194.9828 deg
Eccentricity:    0.0013175
Arg of perigee:   124.0041 deg
Mean anomaly:     236.2384 deg
Mean motion:   14.25641604 rev/day
Decay rate:        6.5e-07 rev/day^2
Epoch rev:           99434
Checksum:              308

Satellite: MET-3/5
Catalog number: 21655
Epoch time:      10181.70265413
Element set:     850
Inclination:      082.5591 deg
RA of node:       299.0856 deg
Eccentricity:    0.0012543
Arg of perigee:   319.7892 deg
Mean anomaly:     040.2287 deg
Mean motion:   13.17020882 rev/day
Decay rate:        5.1e-07 rev/day^2
Epoch rev:           90745
Checksum:              299

Satellite: MET-2/21
Catalog number: 22782
Epoch time:      10182.53730931
Element set:     817
Inclination:      082.5468 deg
RA of node:       241.0568 deg
Eccentricity:    0.0022552
Arg of perigee:   006.9608 deg
Mean anomaly:     353.1865 deg
Mean motion:   13.83645476 rev/day
Decay rate:        4.0e-08 rev/day^2
Epoch rev:           85006
Checksum:              302

Satellite: OKEAN-4
Catalog number: 23317
Epoch time:      10181.68277031
Element set:    0272
Inclination:      082.5410 deg
RA of node:       341.2596 deg
Eccentricity:    0.0021528
Arg of perigee:   193.2978 deg
Mean anomaly:     166.7695 deg
Mean motion:   14.82830692 rev/day
Decay rate:       2.43e-06 rev/day^2
Epoch rev:           84845
Checksum:              314

Satellite: NOAA-14
Catalog number: 23455
Epoch time:      10181.80090241
Element set:    0108
Inclination:      098.8787 deg
RA of node:       262.4503 deg
Eccentricity:    0.0009010
Arg of perigee:   192.2069 deg
Mean anomaly:     167.8874 deg
Mean motion:   14.13788742 rev/day
Decay rate:       -6.0e-08 rev/day^2
Epoch rev:           79942
Checksum:              312

Satellite: NOAA-15
Catalog number: 25338
Epoch time:      10181.56661767
Element set:    0429
Inclination:      098.6188 deg
RA of node:       168.2506 deg
Eccentricity:    0.0011353
Arg of perigee:   040.6947 deg
Mean anomaly:     319.5084 deg
Mean motion:   14.24837581 rev/day
Decay rate:       1.77e-06 rev/day^2
Epoch rev:           63065
Checksum:              326

Satellite: RESURS
Catalog number: 25394
Epoch time:      10181.62602865
Element set:    0543
Inclination:      098.3043 deg
RA of node:       198.9741 deg
Eccentricity:    0.0001382
Arg of perigee:   139.9351 deg
Mean anomaly:     220.1926 deg
Mean motion:   14.24204808 rev/day
Decay rate:        3.4e-07 rev/day^2
Epoch rev:           62226
Checksum:              282

Satellite: FENGYUN1
Catalog number: 25730
Epoch time:      10181.45020423
Element set:    0078
Inclination:      098.7856 deg
RA of node:       146.0590 deg
Eccentricity:    0.0020706
Arg of perigee:   231.5343 deg
Mean anomaly:     128.4021 deg
Mean motion:   14.08187787 rev/day
Decay rate:       -9.0e-08 rev/day^2
Epoch rev:           57355
Checksum:              283

Satellite: OKEAN-0
Catalog number: 25860
Epoch time:      10182.47147553
Element set:      34
Inclination:      097.8324 deg
RA of node:       154.6837 deg
Eccentricity:    0.0001786
Arg of perigee:   061.6194 deg
Mean anomaly:     298.5188 deg
Mean motion:   14.73646567 rev/day
Decay rate:        2.1e-07 rev/day^2
Epoch rev:           58900
Checksum:              318

